ONEWEB-0211             
1 48767U 21045A   25255.48024260  .00000081  00000+0  17999-3 0  9995
2 48767  87.9043 314.5444 0001564  98.6490 261.4818 13.16085070207912
ONEWEB-0223             
1 48768U 21045B   25255.43190108 -.00000080  00000+0 -24768-3 0  9999
2 48768  87.9032 314.6074 0001398  96.8139 263.3151 13.15548887207882
ONEWEB-0230             
1 48769U 21045C   25255.55550015  .00000039  00000+0  69068-4 0  9995
2 48769  87.9028 314.6163 0001933  93.4654 266.6697 13.15548832208160
ONEWEB-0237             
1 48770U 21045D   25255.46835042  .00000515  00000+0  13332-2 0  9993
2 48770  87.9022 314.6327 0001772 132.2796 227.8485 13.15550597207870
ONEWEB-0235             
1 48771U 21045E   25255.59510117 -.00000102  00000+0 -30529-3 0  9993
2 48771  87.9030 314.5759 0001380  96.5955 263.5332 13.15544353207884
ONEWEB-0242             
1 48772U 21045F   25255.58876787 -.00000047  00000+0 -15909-3 0  9994
2 48772  87.9041 314.5633 0001771  92.3170 267.8163 13.15549440207921
ONEWEB-0241             
1 48773U 21045G   25255.57609351 -.00000168  00000+0 -47930-3 0  9998
2 48773  87.9027 314.6136 0001549 107.2744 252.8556 13.15548838207831
ONEWEB-0243             
1 48774U 21045H   25255.45567623  .00000716  00000+0  18667-2 0  9992
2 48774  87.9053 314.6381 0001709  77.2200 282.9121 13.15547397207846
ONEWEB-0222             
1 48775U 21045J   25255.59113094  .00000003  00000+0 -25251-4 0  9996
2 48775  87.9036 314.5652 0001735  98.4089 261.7238 13.15546581207902
ONEWEB-0244             
1 48776U 21045K   25255.46518078  .00000202  00000+0  50202-3 0  9997
2 48776  87.9044 314.5726 0001809  91.3228 268.8110 13.15549156208452
ONEWEB-0247             
1 48777U 21045L   25255.46200088  .00000195  00000+0  48525-3 0  9993
2 48777  87.9032 314.6422 0001033  76.9522 283.1723 13.15550584207893
ONEWEB-0245             
1 48778U 21045M   25255.45726919  .00000165  00000+0  40543-3 0  9998
2 48778  87.9033 314.6063 0001738 100.9236 259.2090 13.15551444207862
ONEWEB-0229             
1 48779U 21045N   25255.60460482  .00000064  00000+0  13531-3 0  9991
2 48779  87.9028 314.5774 0001788  94.2633 265.8702 13.15550021207915
ONEWEB-0228             
1 48780U 21045P   25255.40984215 -.00000020  00000+0 -87749-4 0  9993
2 48780  87.9041 314.5914 0001758  96.2141 263.9190 13.15550871207802
ONEWEB-0232             
1 48781U 21045Q   25255.46042901  .00000183  00000+0  45288-3 0  9996
2 48781  87.9034 314.5739 0001857  96.7568 263.3774 13.15548737208135
ONEWEB-0231             
1 48782U 21045R   25255.59034262 -.00000065  00000+0 -20654-3 0  9993
2 48782  87.9027 314.5997 0001606  93.5835 266.5479 13.15549689207849
