[{"OBJECT_NAME":"ONEWEB-0211","OBJECT_ID":"2021-045A","EPOCH":"2025-09-12T11:31:32.960640","MEAN_MOTION":13.1608507,"ECCENTRICITY":0.00015647,"INCLINATION":87.9043,"RA_OF_ASC_NODE":314.5444,"ARG_OF_PERICENTER":98.649,"MEAN_ANOMALY":261.4818,"EPHEMERIS_TYPE":0,"CLASSIFICATION_TYPE":"U","NORAD_CAT_ID":48767,"ELEMENT_SET_NO":999,"REV_AT_EPOCH":20791,"BSTAR":0.00017998766,"MEAN_MOTION_DOT":8.1e-7,"MEAN_MOTION_DDOT":0},{"OBJECT_NAME":"ONEWEB-0223","OBJECT_ID":"2021-045B","EPOCH":"2025-09-12T10:21:56.253312","MEAN_MOTION":13.15548887,"ECCENTRICITY":0.00013988,"INCLINATION":87.9032,"RA_OF_ASC_NODE":314.6074,"ARG_OF_PERICENTER":96.8139,"MEAN_ANOMALY":263.3151,"EPHEMERIS_TYPE":0,"CLASSIFICATION_TYPE":"U","NORAD_CAT_ID":48768,"ELEMENT_SET_NO":999,"REV_AT_EPOCH":20788,"BSTAR":-0.00024767779,"MEAN_MOTION_DOT":-8.0e-7,"MEAN_MOTION_DDOT":0},{"OBJECT_NAME":"ONEWEB-0230","OBJECT_ID":"2021-045C","EPOCH":"2025-09-12T13:19:55.212960","MEAN_MOTION":13.15548832,"ECCENTRICITY":0.0001933,"INCLINATION":87.9028,"RA_OF_ASC_NODE":314.6163,"ARG_OF_PERICENTER":93.4654,"MEAN_ANOMALY":266.6697,"EPHEMERIS_TYPE":0,"CLASSIFICATION_TYPE":"U","NORAD_CAT_ID":48769,"ELEMENT_SET_NO":999,"REV_AT_EPOCH":20816,"BSTAR":6.9067751e-5,"MEAN_MOTION_DOT":3.9e-7,"MEAN_MOTION_DDOT":0},{"OBJECT_NAME":"ONEWEB-0237","OBJECT_ID":"2021-045D","EPOCH":"2025-09-12T11:14:25.476288","MEAN_MOTION":13.15550597,"ECCENTRICITY":0.00017721,"INCLINATION":87.9022,"RA_OF_ASC_NODE":314.6327,"ARG_OF_PERICENTER":132.2796,"MEAN_ANOMALY":227.8485,"EPHEMERIS_TYPE":0,"CLASSIFICATION_TYPE":"U","NORAD_CAT_ID":48770,"ELEMENT_SET_NO":999,"REV_AT_EPOCH":20787,"BSTAR":0.0013332023,"MEAN_MOTION_DOT":5.15e-6,"MEAN_MOTION_DDOT":0},{"OBJECT_NAME":"ONEWEB-0235","OBJECT_ID":"2021-045E","EPOCH":"2025-09-12T14:16:56.741088","MEAN_MOTION":13.15544353,"ECCENTRICITY":0.00013804,"INCLINATION":87.903,"RA_OF_ASC_NODE":314.5759,"ARG_OF_PERICENTER":96.5955,"MEAN_ANOMALY":263.5332,"EPHEMERIS_TYPE":0,"CLASSIFICATION_TYPE":"U","NORAD_CAT_ID":48771,"ELEMENT_SET_NO":999,"REV_AT_EPOCH":20788,"BSTAR":-0.00030528503,"MEAN_MOTION_DOT":-1.02e-6,"MEAN_MOTION_DDOT":0},{"OBJECT_NAME":"ONEWEB-0242","OBJECT_ID":"2021-045F","EPOCH":"2025-09-12T14:07:49.543968","MEAN_MOTION":13.1554944,"ECCENTRICITY":0.00017717,"INCLINATION":87.9041,"RA_OF_ASC_NODE":314.5633,"ARG_OF_PERICENTER":92.317,"MEAN_ANOMALY":267.8163,"EPHEMERIS_TYPE":0,"CLASSIFICATION_TYPE":"U","NORAD_CAT_ID":48772,"ELEMENT_SET_NO":999,"REV_AT_EPOCH":20792,"BSTAR":-0.00015908848,"MEAN_MOTION_DOT":-4.7e-7,"MEAN_MOTION_DDOT":0},{"OBJECT_NAME":"ONEWEB-0241","OBJECT_ID":"2021-045G","EPOCH":"2025-09-12T13:49:34.479264","MEAN_MOTION":13.15548838,"ECCENTRICITY":0.00015496,"INCLINATION":87.9027,"RA_OF_ASC_NODE":314.6136,"ARG_OF_PERICENTER":107.2744,"MEAN_ANOMALY":252.8556,"EPHEMERIS_TYPE":0,"CLASSIFICATION_TYPE":"U","NORAD_CAT_ID":48773,"ELEMENT_SET_NO":999,"REV_AT_EPOCH":20783,"BSTAR":-0.00047930056,"MEAN_MOTION_DOT":-1.68e-6,"MEAN_MOTION_DDOT":0},{"OBJECT_NAME":"ONEWEB-0243","OBJECT_ID":"2021-045H","EPOCH":"2025-09-12T10:56:10.426272","MEAN_MOTION":13.15547397,"ECCENTRICITY":0.00017099,"INCLINATION":87.9053,"RA_OF_ASC_NODE":314.6381,"ARG_OF_PERICENTER":77.22,"MEAN_ANOMALY":282.9121,"EPHEMERIS_TYPE":0,"CLASSIFICATION_TYPE":"U","NORAD_CAT_ID":48774,"ELEMENT_SET_NO":999,"REV_AT_EPOCH":20784,"BSTAR":0.0018666792,"MEAN_MOTION_DOT":7.16e-6,"MEAN_MOTION_DDOT":0},{"OBJECT_NAME":"ONEWEB-0222","OBJECT_ID":"2021-045J","EPOCH":"2025-09-12T14:11:13.713216","MEAN_MOTION":13.15546581,"ECCENTRICITY":0.00017355,"INCLINATION":87.9036,"RA_OF_ASC_NODE":314.5652,"ARG_OF_PERICENTER":98.4089,"MEAN_ANOMALY":261.7238,"EPHEMERIS_TYPE":0,"CLASSIFICATION_TYPE":"U","NORAD_CAT_ID":48775,"ELEMENT_SET_NO":999,"REV_AT_EPOCH":20790,"BSTAR":-2.5250822e-5,"MEAN_MOTION_DOT":3.0e-8,"MEAN_MOTION_DDOT":0},{"OBJECT_NAME":"ONEWEB-0244","OBJECT_ID":"2021-045K","EPOCH":"2025-09-12T11:09:51.619392","MEAN_MOTION":13.15549156,"ECCENTRICITY":0.00018097,"INCLINATION":87.9044,"RA_OF_ASC_NODE":314.5726,"ARG_OF_PERICENTER":91.3228,"MEAN_ANOMALY":268.811,"EPHEMERIS_TYPE":0,"CLASSIFICATION_TYPE":"U","NORAD_CAT_ID":48776,"ELEMENT_SET_NO":999,"REV_AT_EPOCH":20845,"BSTAR":0.00050202446,"MEAN_MOTION_DOT":2.02e-6,"MEAN_MOTION_DDOT":0},{"OBJECT_NAME":"ONEWEB-0247","OBJECT_ID":"2021-045L","EPOCH":"2025-09-12T11:05:16.876032","MEAN_MOTION":13.15550584,"ECCENTRICITY":0.00010336,"INCLINATION":87.9032,"RA_OF_ASC_NODE":314.6422,"ARG_OF_PERICENTER":76.9522,"MEAN_ANOMALY":283.1723,"EPHEMERIS_TYPE":0,"CLASSIFICATION_TYPE":"U","NORAD_CAT_ID":48777,"ELEMENT_SET_NO":999,"REV_AT_EPOCH":20789,"BSTAR":0.00048524908,"MEAN_MOTION_DOT":1.95e-6,"MEAN_MOTION_DDOT":0},{"OBJECT_NAME":"ONEWEB-0245","OBJECT_ID":"2021-045M","EPOCH":"2025-09-12T10:58:28.058016","MEAN_MOTION":13.15551444,"ECCENTRICITY":0.00017384,"INCLINATION":87.9033,"RA_OF_ASC_NODE":314.6063,"ARG_OF_PERICENTER":100.9236,"MEAN_ANOMALY":259.209,"EPHEMERIS_TYPE":0,"CLASSIFICATION_TYPE":"U","NORAD_CAT_ID":48778,"ELEMENT_SET_NO":999,"REV_AT_EPOCH":20786,"BSTAR":0.0004054328,"MEAN_MOTION_DOT":1.65e-6,"MEAN_MOTION_DDOT":0},{"OBJECT_NAME":"ONEWEB-0229","OBJECT_ID":"2021-045N","EPOCH":"2025-09-12T14:30:37.856448","MEAN_MOTION":13.15550021,"ECCENTRICITY":0.00017885,"INCLINATION":87.9028,"RA_OF_ASC_NODE":314.5774,"ARG_OF_PERICENTER":94.2633,"MEAN_ANOMALY":265.8702,"EPHEMERIS_TYPE":0,"CLASSIFICATION_TYPE":"U","NORAD_CAT_ID":48779,"ELEMENT_SET_NO":999,"REV_AT_EPOCH":20791,"BSTAR":0.00013531296,"MEAN_MOTION_DOT":6.4e-7,"MEAN_MOTION_DDOT":0},{"OBJECT_NAME":"ONEWEB-0228","OBJECT_ID":"2021-045P","EPOCH":"2025-09-12T09:50:10.361760","MEAN_MOTION":13.15550871,"ECCENTRICITY":0.00017587,"INCLINATION":87.9041,"RA_OF_ASC_NODE":314.5914,"ARG_OF_PERICENTER":96.2141,"MEAN_ANOMALY":263.919,"EPHEMERIS_TYPE":0,"CLASSIFICATION_TYPE":"U","NORAD_CAT_ID":48780,"ELEMENT_SET_NO":999,"REV_AT_EPOCH":20780,"BSTAR":-8.7748741e-5,"MEAN_MOTION_DOT":-2.0e-7,"MEAN_MOTION_DDOT":0},{"OBJECT_NAME":"ONEWEB-0232","OBJECT_ID":"2021-045Q","EPOCH":"2025-09-12T11:03:01.066464","MEAN_MOTION":13.15548737,"ECCENTRICITY":0.00018572,"INCLINATION":87.9034,"RA_OF_ASC_NODE":314.5739,"ARG_OF_PERICENTER":96.7568,"MEAN_ANOMALY":263.3774,"EPHEMERIS_TYPE":0,"CLASSIFICATION_TYPE":"U","NORAD_CAT_ID":48781,"ELEMENT_SET_NO":999,"REV_AT_EPOCH":20813,"BSTAR":0.00045287916,"MEAN_MOTION_DOT":1.83e-6,"MEAN_MOTION_DDOT":0},{"OBJECT_NAME":"ONEWEB-0231","OBJECT_ID":"2021-045R","EPOCH":"2025-09-12T14:10:05.602368","MEAN_MOTION":13.15549689,"ECCENTRICITY":0.00016064,"INCLINATION":87.9027,"RA_OF_ASC_NODE":314.5997,"ARG_OF_PERICENTER":93.5835,"MEAN_ANOMALY":266.5479,"EPHEMERIS_TYPE":0,"CLASSIFICATION_TYPE":"U","NORAD_CAT_ID":48782,"ELEMENT_SET_NO":999,"REV_AT_EPOCH":20784,"BSTAR":-0.00020654469,"MEAN_MOTION_DOT":-6.5e-7,"MEAN_MOTION_DDOT":0}]
